MOLNIYA 2-9             
1 07276U 74026A   22253.26593726  .00000079  00000+0  00000+0 0  9999
2 07276  64.2805 215.3524 6447191 280.2783  17.4602  2.45097606251291
MOLNIYA 2-10            
1 07376U 74056A   22252.92309922 -.00000861  00000+0  00000+0 0  9998
2 07376  64.2228  86.0286 6742710 286.0511  13.6417  2.01093902352052
MOLNIYA 1-S             
1 07392U 74060A   22253.76747623  .00000006  00000+0  00000+0 0  9998
2 07392   4.9068 281.6575 0011739 213.1033 194.9160  1.00203438120383
MOLNIYA 1-29            
1 07780U 75036A   22252.91648623  .00000004  00000+0  45446-3 0  9994
2 07780  63.4159 205.8439 6875751 288.5386  12.0706  2.00623509347313
MOLNIYA 2-14            
1 08195U 75081A   22253.78830744 -.00000943  00000+0  00000+0 0  9994
2 08195  63.3884 178.8425 6782738 292.7384  11.6088  2.02099759344613
MOLNIYA 1-32            
1 08601U 76006A   22249.00658922 -.00001300  00000+0  56463-2 0  9995
2 08601  63.4833 286.4183 7233474 283.8577  11.2457  2.00041357340612
MOLNIYA 1-36            
1 09880U 77021A   22253.54619662 -.00000415  00000+0  00000+0 0  9994
2 09880  63.5044 257.3985 7154298 289.6678  10.2062  2.00904694231078
MOLNIYA 3-8             
1 10455U 77105A   22254.26428880 -.00000774  00000+0  20476-2 0  9997
2 10455  63.4085 344.8203 7365222 282.3001  10.9212  2.00821057328788
MOLNIYA 1-40            
1 10925U 78055A   22254.45814850  .00000258  00000+0  00000+0 0  9995
2 10925  63.4078  35.9077 7265597 280.6846  11.8694  2.00728958324439
MOLNIYA 3-10            
1 11057U 78095A   22253.74157052 -.00000011  00000+0  23144-3 0  9997
2 11057  63.1906   7.8436 5789642 310.9605  11.7585  4.09854487387222
MOLNIYA 3-13            
1 11896U 80063A   22253.69982300  .00000225  00000+0  00000+0 0  9990
2 11896  62.7116 126.5473 7111664 276.3863  14.0162  2.00663082308809
MOLNIYA 1-49            
1 12156U 81009A   22253.75548181 -.00000940  00000+0  35993-4 0  9992
2 12156  61.6940 152.5358 7280729 263.5401  17.0100  2.05713121223275
MOLNIYA 1-52            
1 13012U 81123A   22253.07561465  .00000002  00000+0 -42332-2 0  9998
2 13012  61.6988 266.5711 7232915 255.9362  20.6617  2.00376217298342
MOLNIYA 1-53            
1 13070U 82015A   22253.31452095 -.00001190  00000+0  31252-2 0  9996
2 13070  62.6179 203.7535 7022421 282.8749  12.6909  2.00716975296963
MOLNIYA 3-20            
1 13875U 83015A   22252.35377794  .00001548  00000+0  27955-2 0  9996
2 13875  62.6979 339.5016 7401245 258.8270  17.8436  2.00540293225392
MOLNIYA 1-56            
1 13890U 83019A   22252.71231029 -.00001577  00000+0  36322-3 0  9999
2 13890  62.9603   4.5864 7451912 264.7910  15.1941  1.99928598288283
MOLNIYA 1-63            
1 15429U 84124A   22251.72182442  .00000706  00000+0  00000+0 0  9993
2 15429  63.7570 159.8291 6652620 259.1415 297.7121  2.00841180276424
MOLNIYA 3-24            
1 15738U 85040A   22253.83218450 -.00000024  00000+0  00000+0 0  9991
2 15738  63.6595  66.8504 6825832 247.2518  30.6235  2.55627371306053
MOLNIYA 3-27            
1 16393U 85117A   22252.97359724 -.00000007  00000+0  00000+0 0  9999
2 16393  64.3828  70.4804 7003084 247.9373  27.9803  2.12396931275970
MOLNIYA 1-69            
1 17078U 86089A   22252.09822193  .00000144  00000+0  00000+0 0  9998
2 17078  63.9882 178.6552 6656786 257.5472  25.9101  2.00675996262508
MOLNIYA 3-31            
1 17328U 87008A   22252.69942929  .00000437  00000+0  00000+0 0  9999
2 17328  63.6939 118.6735 7062865 253.6755  23.7348  2.00627801257554
MOLNIYA 1-71            
1 18946U 88017A   22252.64149645 -.00000259  00000+0  00000+0 0  9999
2 18946  63.3998 112.4663 7175787 256.3816  21.1293  2.00633004252740
MOLNIYA 1-75            
1 19807U 89014A   22251.86634108 -.00000005  00000+0  00000+0 0  9999
2 19807  64.0401 275.4582 6840284 266.6751  19.6028  2.00582158245671
MOLNIYA 1-80            
1 21118U 91012A   22252.92046111  .00000840  00000+0  00000+0 0  9993
2 21118  65.1941 323.7434 6780557 276.5529  16.4896  2.05236194232712
MOLNIYA 3-40            
1 21196U 91022A   22251.58415797 -.00000742  00000+0  00000+0 0  9993
2 21196  65.1057 317.5101 6810193 273.3713  17.3714  2.03003755231371
MOLNIYA 1-81            
1 21426U 91043A   22253.27006518 -.00000048  00000+0  00000+0 0  9996
2 21426  64.0920 333.3022 7093749 266.5432  17.5684  2.00635905228868
MOLNIYA 3-41            
1 21706U 91065A   22252.57072696  .00000466  00000+0  00000+0 0  9996
2 21706  64.0953 156.8884 6858815 255.1246  25.1360  2.04340943228582
MOLNIYA 3-42            
1 22178U 92067A   22252.26732829  .00000143  00000+0  00000+0 0  9992
2 22178  64.6743 207.1258 6424178 265.7225  23.8496  2.20435589 81906
MOLNIYA 1-86            
1 22671U 93035A   22254.18789934  .00000400  00000+0  58677-3 0  9991
2 22671  63.0780 187.0878 4862213   8.3983 357.4386  5.62704217357072
MOLNIYA 1-87            
1 22949U 93079A   22252.84431008  .00000387  00000+0  00000+0 0  9991
2 22949  64.0249  82.5901 6885499 283.8977  13.3467  2.02846219 76642
MOLNIYA 1-88            
1 23420U 94081A   22253.99603123  .00000077  00000+0  00000+0 0  9992
2 23420  64.2770 176.8498 5799287 281.4903  21.9519  3.34497066249808
MOLNIYA 3-47            
1 23642U 95042A   22253.43816683 -.00001308  00000+0  00000+0 0  9991
2 23642  64.1517  64.2411 6934876 284.1417  12.9778  2.01964452198736
MOLNIYA 1-90            
1 24960U 97054A   22253.75693307  .00000092  00000+0 -14938-3 0  9999
2 24960  63.6468 143.3447 6108282 298.1308  13.9168  3.18687561210725
MOLNIYA 1-91            
1 25485U 98054A   22254.23014612  .00000159  00000+0  22925-2 0  9990
2 25485  63.0417 136.8727 6772490 291.8883 339.8803  2.36442789180407
MOLNIYA 3-50            
1 25847U 99036A   22253.24570087  .00000198  00000+0  56447-3 0  9996
2 25847  63.2289 321.3453 7370966 282.1858  10.8779  2.00665129169819
